[{"OBJECT_NAME":"STARLINK-33652","OBJECT_ID":"2025-065B","EPOCH":"2026-03-09T03:48:55.836576","MEAN_MOTION":15.275786,"ECCENTRICITY":0.00011441,"INCLINATION":43.001,"RA_OF_ASC_NODE":109.6567,"ARG_OF_PERICENTER":267.3836,"MEAN_ANOMALY":92.6884,"EPHEMERIS_TYPE":0,"CLASSIFICATION_TYPE":"U","NORAD_CAT_ID":63400,"ELEMENT_SET_NO":999,"REV_AT_EPOCH":5276,"BSTAR":0.00080246304,"MEAN_MOTION_DOT":0.00021884,"MEAN_MOTION_DDOT":0},{"OBJECT_NAME":"CZ-6A DEB","OBJECT_ID":"2022-151DE","EPOCH":"2026-03-09T09:45:43.657920","MEAN_MOTION":15.34292219,"ECCENTRICITY":0.00393756,"INCLINATION":99.0022,"RA_OF_ASC_NODE":218.5596,"ARG_OF_PERICENTER":192.6197,"MEAN_ANOMALY":167.4059,"EPHEMERIS_TYPE":0,"CLASSIFICATION_TYPE":"U","NORAD_CAT_ID":54359,"ELEMENT_SET_NO":999,"REV_AT_EPOCH":10560,"BSTAR":0.0065240017,"MEAN_MOTION_DOT":0.00228186,"MEAN_MOTION_DDOT":0}]
